IRIDIUM 166             
1 43570U 18061B   24344.56553560  .00000721  00000+0  25048-3 0  9998
2 43570  86.3954 288.4941 0001898  83.0426 277.0985 14.34212283333907
IRIDIUM 158             
1 43571U 18061C   24344.60359445  .00000760  00000+0  26439-3 0  9998
2 43571  86.3953 288.4878 0002233  78.8907 281.2540 14.34220155333873
IRIDIUM 165             
1 43572U 18061D   24344.55919512  .00000279  00000+0  92521-4 0  9991
2 43572  86.3955 288.5421 0002181  88.4169 271.7277 14.34216959333890
IRIDIUM 155             
1 43573U 18061E   24344.59090565  .00000765  00000+0  26624-3 0  9994
2 43573  86.3951 288.4254 0002033  77.7271 282.4152 14.34221193333876
IRIDIUM 154             
1 43574U 18061F   24344.78118637  .00000257  00000+0  84716-4 0  9990
2 43574  86.3953 288.4520 0002212  87.7871 272.3578 14.34218296333949
IRIDIUM 163             
1 43575U 18061G   24344.55285362  .00000062  00000+0  15083-4 0  9991
2 43575  86.3953 288.4805 0002255  80.2192 279.9258 14.34217270333889
IRIDIUM 156             
1 43576U 18061H   24344.80654789  .00000531  00000+0  18265-3 0  9998
2 43576  86.3949 288.3808 0001884  78.3285 281.8122 14.34222770333901
IRIDIUM 164             
1 43577U 18061J   24344.85729584  .00000442  00000+0  15079-3 0  9991
2 43577  86.3954 288.3912 0002064  91.8014 268.3418 14.34216489333969
